CZ-2C R/B               
1 54039U 22132E   25359.53948291  .00034876  00000+0  50402-3 0  9997
2 54039  97.2948 355.9894 0021115  13.4928 346.6886 15.55599744178823
GSLV R/B                
1 54149U 22138AN  25359.56350057  .00002812  00000+0  24569-3 0  9995
2 54149  87.3821 191.1788 0024011  63.5918 296.7774 14.96194196172843
XRISM                   
1 57800U 23137A   25359.52262012  .00006529  00000+0  38124-3 0  9992
2 57800  31.0031  43.0059 0007622  13.7747 346.3098 15.10467063126563
ACS3                    
1 59588U 24077B   25359.82246360  .00028393  00000+0  24058-1 0  9994
2 59588  97.2595 312.5056 0074260 305.9275  53.5011 13.86095657 83956
SZ-21 MODULE            
1 66515U 25246C   25359.19228706  .00029146  00000+0  31272-3 0  9990
2 66515  41.4767 300.0489 0004589 327.9877  32.0683 15.63137537  6398
